OBJECT_NAME,OBJECT_ID,EPOCH,MEAN_MOTION,ECCENTRICITY,INCLINATION,RA_OF_ASC_NODE,ARG_OF_PERICENTER,MEAN_ANOMALY,EPHEMERIS_TYPE,CLASSIFICATION_TYPE,NORAD_CAT_ID,ELEMENT_SET_NO,REV_AT_EPOCH,BSTAR,MEAN_MOTION_DOT,MEAN_MOTION_DDOT
STARLINK-37886,2026-157A,2026-07-19T20:00:01.999008,15.80911294,.0001063,53.1590,272.5871,67.4651,162.3942,0,U,69943,999,290,-.4151E-3,-.81996E-3,0
STARLINK-37937,2026-157B,2026-07-19T20:00:01.999008,15.80917199,.0001197,53.1589,272.5682,63.7680,175.1687,0,U,69944,999,290,-.39462E-3,-.78043E-3,0
STARLINK-37903,2026-157C,2026-07-19T20:00:01.999008,15.80911729,.0000995,53.1589,272.5588,79.1992,164.2633,0,U,69945,999,290,-.39039E-3,-.772E-3,0
STARLINK-37905,2026-157D,2026-07-19T20:00:01.999008,15.80907975,.0000713,53.1590,272.5188,71.6283,191.1228,0,U,69946,999,290,-.39679E-3,-.78427E-3,0
STARLINK-37904,2026-157E,2026-07-19T20:00:01.999008,15.80869055,.0000761,53.1587,272.5104,74.2496,192.4315,0,U,69947,999,290,-.14362E-3,-.28943E-3,0
STARLINK-37891,2026-157F,2026-07-19T20:00:01.999008,15.80928128,.0000888,53.1589,272.5016,81.4577,189.4843,0,U,69948,999,290,-.57334E-3,-.112678E-2,0
STARLINK-37923,2026-157G,2026-07-19T20:00:01.999008,15.80915076,.0000974,53.1589,272.4661,73.1155,214.9355,0,U,69949,999,290,-.43855E-3,-.86559E-3,0
STARLINK-37895,2026-157H,2026-07-19T20:00:01.999008,15.80904775,.0001126,53.1588,272.4504,69.8676,225.6437,0,U,69950,999,290,-.35064E-3,-.69452E-3,0
STARLINK-37841,2026-157J,2026-07-19T20:00:01.999008,15.80912347,.0001067,53.1588,272.4268,71.9304,235.0021,0,U,69951,999,290,-.43538E-3,-.85933E-3,0
STARLINK-37899,2026-157K,2026-07-19T20:00:01.999008,15.80912317,.0000914,53.1589,272.4039,69.7792,248.3057,0,U,69952,999,290,-.42573E-3,-.84062E-3,0
STARLINK-37900,2026-157L,2026-07-19T20:00:01.999008,15.80920779,.0001206,53.1588,272.3961,87.5249,234.3914,0,U,69953,999,290,-.47181E-3,-.93029E-3,0
STARLINK-37882,2026-157M,2026-07-19T20:00:01.999008,15.80928703,.0001203,53.1588,272.3736,66.3772,266.3470,0,U,69954,999,290,-.58108E-3,-.114176E-2,0
STARLINK-37928,2026-157N,2026-07-19T20:00:01.999008,15.80924394,.0001163,53.1588,272.3723,65.7816,267.6284,0,U,69955,999,290,-.54659E-3,-.107501E-2,0
STARLINK-37824,2026-157P,2026-07-19T20:00:01.999008,15.80949055,.0001284,53.1587,272.3694,97.5674,237.2641,0,U,69956,999,290,-.70463E-3,-.138058E-2,0
STARLINK-37919,2026-157Q,2026-07-19T20:00:01.999008,15.80926569,.0000834,53.1587,272.3673,83.2599,252.5526,0,U,69957,999,290,-.54945E-3,-.10806E-2,0
STARLINK-37964,2026-157R,2026-07-19T20:00:01.999008,15.80932859,.0000281,53.1587,272.3539,89.6706,252.6192,0,U,69958,999,290,-.66022E-3,-.129418E-2,0
STARLINK-37907,2026-157S,2026-07-19T20:00:01.999008,15.80905814,.0001233,53.1616,272.3328,57.7745,294.5963,0,U,69959,999,290,-.37799E-3,-.74773E-3,0
STARLINK-37901,2026-157T,2026-07-19T20:00:01.999008,15.80927561,.0000834,53.1587,272.3196,68.0160,290.9695,0,U,69960,999,290,-.57158E-3,-.112333E-2,0
STARLINK-37910,2026-157U,2026-07-19T20:00:01.999008,15.80912295,.0000926,53.1616,272.3003,59.5238,308.5298,0,U,69961,999,290,-.43713E-3,-.86271E-3,0
STARLINK-37925,2026-157V,2026-07-19T20:00:01.999008,15.80907921,.0000866,53.1616,272.2962,39.8666,330.1702,0,U,69962,999,290,-.41194E-3,-.81369E-3,0
STARLINK-37931,2026-157W,2026-07-19T20:00:01.999008,15.80898297,.0000646,53.1617,272.2894,50.7139,322.5855,0,U,69963,999,290,-.30804E-3,-.61135E-3,0
STARLINK-37914,2026-157X,2026-07-19T20:00:01.999008,15.80907296,.0001225,53.1615,272.2545,73.4864,316.3608,0,U,69964,999,290,-.34534E-3,-.68428E-3,0
STARLINK-37840,2026-157Y,2026-07-19T20:00:01.999008,15.80946212,.0000637,53.1585,272.2197,56.9385,349.7437,0,U,69965,999,290,-.64261E-3,-.126113E-2,0
STARLINK-37894,2026-157Z,2026-07-19T20:00:01.999008,15.80915798,.0001266,53.1614,272.2339,61.8276,338.0804,0,U,69966,999,290,-.43843E-3,-.8654E-3,0
STARLINK-37875,2026-157AA,2026-07-19T20:00:01.999008,15.80900520,.0000992,53.1614,272.2127,57.5177,352.5381,0,U,69967,999,290,-.28104E-3,-.55879E-3,0
STARLINK-36218,2026-157AB,2026-07-19T20:00:01.999008,15.80909281,.0001332,53.1587,272.1852,70.1629,352.9386,0,U,69968,999,255,-.33808E-3,-.67023E-3,0
STARLINK-37921,2026-157AC,2026-07-19T20:00:01.999008,15.80897913,.0001182,53.1592,272.1481,70.6177,10.4553,0,U,69969,999,290,-.29598E-3,-.58787E-3,0
STARLINK-37896,2026-157AD,2026-07-19T20:00:01.999008,15.80937490,.000134,53.1592,272.1460,104.2769,337.8323,0,U,69970,999,290,-.27233E-3,-.54274E-3,0
STARLINK-37922,2026-157AE,2026-07-19T20:00:01.999008,15.80901721,.0001186,53.1591,272.1428,70.5394,12.9506,0,U,69971,999,290,-.29951E-3,-.59485E-3,0
CHUANG XIN 26 (CX-26),2026-158A,2026-07-19T14:45:36.165024,14.25124094,.000493,49.9833,261.7658,314.6012,45.4498,0,U,69972,999,133,.31568E-4,-.85E-6,0
