STARLINK-37886          
1 69943U 26157A   26200.83335647 -.00081996  00000+0 -41510-3 0  9999
2 69943  53.1590 272.5871 0001063  67.4651 162.3942 15.80911294  2905
STARLINK-37937          
1 69944U 26157B   26200.83335647 -.00078043  00000+0 -39462-3 0  9992
2 69944  53.1589 272.5682 0001197  63.7680 175.1687 15.80917199  2901
STARLINK-37903          
1 69945U 26157C   26200.83335647 -.00077200  00000+0 -39039-3 0  9997
2 69945  53.1589 272.5588 0000995  79.1992 164.2633 15.80911729  2902
STARLINK-37905          
1 69946U 26157D   26200.83335647 -.00078427  00000+0 -39679-3 0  9990
2 69946  53.1590 272.5188 0000713  71.6283 191.1228 15.80907975  2906
STARLINK-37904          
1 69947U 26157E   26200.83335647 -.00028943  00000+0 -14362-3 0  9991
2 69947  53.1587 272.5104 0000761  74.2496 192.4315 15.80869055  2906
STARLINK-37891          
1 69948U 26157F   26200.83335647 -.00112678  00000+0 -57334-3 0  9997
2 69948  53.1589 272.5016 0000888  81.4577 189.4843 15.80928128  2900
STARLINK-37923          
1 69949U 26157G   26200.83335647 -.00086559  00000+0 -43855-3 0  9999
2 69949  53.1589 272.4661 0000974  73.1155 214.9355 15.80915076  2902
STARLINK-37895          
1 69950U 26157H   26200.83335647 -.00069452  00000+0 -35064-3 0  9997
2 69950  53.1588 272.4504 0001126  69.8676 225.6437 15.80904775  2903
STARLINK-37841          
1 69951U 26157J   26200.83335647 -.00085933  00000+0 -43538-3 0  9995
2 69951  53.1588 272.4268 0001067  71.9304 235.0021 15.80912347  2905
STARLINK-37899          
1 69952U 26157K   26200.83335647 -.00084062  00000+0 -42573-3 0  9996
2 69952  53.1589 272.4039 0000914  69.7792 248.3057 15.80912317  2902
STARLINK-37900          
1 69953U 26157L   26200.83335647 -.00093029  00000+0 -47181-3 0  9990
2 69953  53.1588 272.3961 0001206  87.5249 234.3914 15.80920779  2903
STARLINK-37882          
1 69954U 26157M   26200.83335647 -.00114176  00000+0 -58108-3 0  9999
2 69954  53.1588 272.3736 0001203  66.3772 266.3470 15.80928703  2904
STARLINK-37928          
1 69955U 26157N   26200.83335647 -.00107501  00000+0 -54659-3 0  9991
2 69955  53.1588 272.3723 0001163  65.7816 267.6284 15.80924394  2907
STARLINK-37824          
1 69956U 26157P   26200.83335647 -.00138058  00000+0 -70463-3 0  9994
2 69956  53.1587 272.3694 0001284  97.5674 237.2641 15.80949055  2904
STARLINK-37919          
1 69957U 26157Q   26200.83335647 -.00108060  00000+0 -54945-3 0  9992
2 69957  53.1587 272.3673 0000834  83.2599 252.5526 15.80926569  2907
STARLINK-37964          
1 69958U 26157R   26200.83335647 -.00129418  00000+0 -66022-3 0  9992
2 69958  53.1587 272.3539 0000281  89.6706 252.6192 15.80932859  2904
STARLINK-37907          
1 69959U 26157S   26200.83335647 -.00074773  00000+0 -37799-3 0  9995
2 69959  53.1616 272.3328 0001233  57.7745 294.5963 15.80905814  2903
STARLINK-37901          
1 69960U 26157T   26200.83335647 -.00112333  00000+0 -57158-3 0  9993
2 69960  53.1587 272.3196 0000834  68.0160 290.9695 15.80927561  2902
STARLINK-37910          
1 69961U 26157U   26200.83335647 -.00086271  00000+0 -43713-3 0  9997
2 69961  53.1616 272.3003 0000926  59.5238 308.5298 15.80912295  2909
STARLINK-37925          
1 69962U 26157V   26200.83335647 -.00081369  00000+0 -41194-3 0  9992
2 69962  53.1616 272.2962 0000866  39.8666 330.1702 15.80907921  2903
STARLINK-37931          
1 69963U 26157W   26200.83335647 -.00061135  00000+0 -30804-3 0  9998
2 69963  53.1617 272.2894 0000646  50.7139 322.5855 15.80898297  2901
STARLINK-37914          
1 69964U 26157X   26200.83335647 -.00068428  00000+0 -34534-3 0  9995
2 69964  53.1615 272.2545 0001225  73.4864 316.3608 15.80907296  2901
STARLINK-37840          
1 69965U 26157Y   26200.83335647 -.00126113  00000+0 -64261-3 0  9992
2 69965  53.1585 272.2197 0000637  56.9385 349.7437 15.80946212  2902
STARLINK-37894          
1 69966U 26157Z   26200.83335647 -.00086540  00000+0 -43843-3 0  9995
2 69966  53.1614 272.2339 0001266  61.8276 338.0804 15.80915798  2901
STARLINK-37875          
1 69967U 26157AA  26200.83335647 -.00055879  00000+0 -28104-3 0  9990
2 69967  53.1614 272.2127 0000992  57.5177 352.5381 15.80900520  2902
STARLINK-36218          
1 69968U 26157AB  26200.83335647 -.00067023  00000+0 -33808-3 0  9992
2 69968  53.1587 272.1852 0001332  70.1629 352.9386 15.80909281  2551
STARLINK-37921          
1 69969U 26157AC  26200.83335647 -.00058787  00000+0 -29598-3 0  9991
2 69969  53.1592 272.1481 0001182  70.6177  10.4553 15.80897913  2901
STARLINK-37896          
1 69970U 26157AD  26200.83335647 -.00054274  00000+0 -27233-3 0  9994
2 69970  53.1592 272.1460 0001340 104.2769 337.8323 15.80937490  2903
STARLINK-37922          
1 69971U 26157AE  26200.83335647 -.00059485  00000+0 -29951-3 0  9993
2 69971  53.1591 272.1428 0001186  70.5394  12.9506 15.80901721  2906
CHUANG XIN 26 (CX-26)   
1 69972U 26158A   26200.61500191 -.00000085  00000+0  31568-4 0  9998
2 69972  49.9833 261.7658 0004930 314.6012  45.4498 14.25124094  1332
